FLOCK 4Q-36             
1 58274U 23174U   26061.83513631  .00032850  00000+0  57157-3 0  9993
2 58274  97.3904 150.9225 0007650 167.7672 192.3767 15.50690459129313
FLOCK 4Q-12             
1 58275U 23174V   26061.78092079  .00078328  00000+0  13515-2 0  9995
2 58275  97.3899 150.7499 0006062 173.9595 186.1731 15.50730178129323
FLOCK 4Q-28             
1 58280U 23174AA  26061.71796820  .00034880  00000+0  65492-3 0  9996
2 58280  97.3925 149.9347 0007281 173.9095 186.2246 15.48508263129237
FLOCK 4Q-27             
1 58282U 23174AC  26061.77835882  .00035765  00000+0  67196-3 0  9992
2 58282  97.3867 149.5418 0006713 168.8852 191.2548 15.48489142129259
FLOCK 4Q-26             
1 58284U 23174AE  26061.76079161  .00034781  00000+0  61356-3 0  9992
2 58284  97.3919 150.9342 0007177 172.3071 187.8292 15.50292634129303
FLOCK 4Q-31             
1 58285U 23174AF  26061.78984637  .00041870  00000+0  75080-3 0  9994
2 58285  97.3962 150.6068 0007799 174.0423 186.0922 15.49783910129260
FLOCK 4Q-30             
1 58286U 23174AG  26061.77880549  .00041592  00000+0  73996-3 0  9996
2 58286  97.3963 150.7749 0007716 169.1863 190.9556 15.50010199129273
PELICAN-1               
1 58296U 23174AS  26061.21197301  .00042297  00000+0  46186-3 0  9997
2 58296  97.4024 155.6119 0008642 252.1042 107.9274 15.63199868129392
FLOCK 4Q-25             
1 58303U 23174AZ  26061.77872069  .00056986  00000+0  82317-3 0  9994
2 58303  97.3880 151.6053 0005367 156.4156 203.7345 15.55758497129390
FLOCK 4Q-29             
1 58304U 23174BA  26061.80323862  .00037660  00000+0  69514-3 0  9993
2 58304  97.3950 150.4057 0007963 162.0265 198.1268 15.48977735129254
FLOCK 4Q-22             
1 58306U 23174BC  26061.77503046  .00041308  00000+0  69704-3 0  9990
2 58306  97.3866 150.5399 0006830 165.1619 194.9835 15.51515602129328
FLOCK 4Q-23             
1 58307U 23174BD  26061.81017906  .00051259  00000+0  77344-3 0  9996
2 58307  97.3974 152.0957 0007074 162.4707 197.6793 15.54577343129365
FLOCK 4Q-33             
1 58308U 23174BE  26061.82184072  .00032329  00000+0  56362-3 0  9991
2 58308  97.3892 150.5304 0007483 156.0212 204.1389 15.50639368129310
FLOCK 4Q-35             
1 58309U 23174BF  26061.80417002  .00034987  00000+0  63170-3 0  9999
2 58309  97.3914 150.6866 0008283 168.9017 191.2419 15.49620458129299
FLOCK 4Q-34             
1 58316U 23174BN  26061.75777396  .00051650  00000+0  77439-3 0  9995
2 58316  97.3869 151.4477 0006895 163.4579 196.6901 15.54752135129360
FLOCK 4Q-7              
1 58318U 23174BQ  26061.83589071  .00036496  00000+0  68143-3 0  9990
2 58318  97.3947 150.2510 0008179 160.3978 199.7588 15.48652313129253
